0 INTELSAT 804
1 25110U 97083A   13281.53634247  .00000121  00000-0  10000-3 0  1704
2 25110 007.6055 054.2416 0003293 136.0978 223.9641 01.00350228 57951
0 INTELSAT 804
1 25110U 97083A   13284.52571537  .00000113  00000-0  10000-3 0  1710
2 25110 007.6111 054.2087 0003404 137.7928 222.2684 01.00351569 57986
0 INTELSAT 804
1 25110U 97083A   13288.51146354  .00000109  00000-0  10000-3 0  1724
2 25110 007.6187 054.1647 0003449 138.3353 221.7190 01.00353354 58024
0 INTELSAT 804
1 25110U 97083A   13290.50425657  .00000110  00000-0  10000-3 0  1735
2 25110 007.6225 054.1427 0003608 142.3021 217.7243 01.00354219 58044
0 INTELSAT 804
1 25110U 97083A   13290.50426916  .00000000  00000-0  10000-3 0  1743
2 25110 007.6233 054.1449 0003468 156.4152 203.6096 01.00350789 58040
0 INTELSAT 804
1 25110U 97083A   13293.49340756  .00000113  00000-0  10000-3 0  1746
2 25110 007.6285 054.1091 0003756 143.8539 216.1345 01.00355555 58074
